{"type": "FeatureCollection", "features": [ {"type": "Feature", "properties": {"norad_id": 43262, "name": "GAOFEN-1 04", "group": "resource", "lat": 45.384725585069894, "lon": 27.292494380500678, "alt_km": 635.8415992685104, "timestamp": "2025-12-03T17:47:50.369774+00:00", "meta": {"OBJECT_NAME": "GAOFEN-1 04", "OBJECT_ID": "2018-031D", "EPOCH": "2025-12-03T12:42:36.880992", "MEAN_MOTION": 14.76418274, "ECCENTRICITY": 0.0001343, "INCLINATION": 98.0821, "RA_OF_ASC_NODE": 35.3609, "ARG_OF_PERICENTER": 62.4218, "MEAN_ANOMALY": 297.7128, "EPHEMERIS_TYPE": 0, "CLASSIFICATION_TYPE": "U", "NORAD_CAT_ID": 43262, "ELEMENT_SET_NO": 999, "REV_AT_EPOCH": 41381, "BSTAR": 0.0002218, "MEAN_MOTION_DOT": 1.49e-05, "MEAN_MOTION_DDOT": 0}, "tle": {"line1": "1 43262U 18031D   25337.52959353  .00001490  00000+0  22180-3 0  9990", "line2": "2 43262  98.0821  35.3609 0001343  62.4218 297.7128 14.76418274413814"}}, "geometry": {"type": "Point", "coordinates": [27.292494380500678, 45.384725585069894]}}, {"type": "Feature", "properties": {"norad_id": 43437, "name": "SENTINEL-3B", "group": "resource", "lat": 19.545111656768604, "lon": 39.96547823706227, "alt_km": 802.7592146125107, "timestamp": "2025-12-03T17:47:50.369785+00:00", "meta": {"OBJECT_NAME": "SENTINEL-3B", "OBJECT_ID": "2018-039A", "EPOCH": "2025-12-03T10:58:20.756352", "MEAN_MOTION": 14.26736911, "ECCENTRICITY": 0.0001465, "INCLINATION": 98.628, "RA_OF_ASC_NODE": 42.775, "ARG_OF_PERICENTER": 111.8158, "MEAN_ANOMALY": 248.3178, "EPHEMERIS_TYPE": 0, "CLASSIFICATION_TYPE": "U", "NORAD_CAT_ID": 43437, "ELEMENT_SET_NO": 999, "REV_AT_EPOCH": 39621, "BSTAR": 0.00011602, "MEAN_MOTION_DOT": 2.37e-06, "MEAN_MOTION_DDOT": 0}, "tle": {"line1": "1 43437U 18039A   25337.45718468  .00000237  00000+0  11602-3 0  9999", "line2": "2 43437  98.6280  42.7750 0001465 111.8158 248.3178 14.26736911396216"}}, "geometry": {"type": "Point", "coordinates": [39.96547823706227, 19.545111656768604]}}, {"type": "Feature", "properties": {"norad_id": 43461, "name": "GAOFEN-5 01", "group": "resource", "lat": 0.026869336189852634, "lon": -59.45150905457013, "alt_km": 693.788461698221, "timestamp": "2025-12-03T17:47:50.369795+00:00", "meta": {"OBJECT_NAME": "GAOFEN-5 01", "OBJECT_ID": "2018-043A", "EPOCH": "2025-12-03T11:13:11.097120", "MEAN_MOTION": 14.6039253, "ECCENTRICITY": 0.0001564, "INCLINATION": 98.4313, "RA_OF_ASC_NODE": 300.2737, "ARG_OF_PERICENTER": 10.1795, "MEAN_ANOMALY": 349.9435, "EPHEMERIS_TYPE": 0, "CLASSIFICATION_TYPE": "U", "NORAD_CAT_ID": 43461, "ELEMENT_SET_NO": 999, "REV_AT_EPOCH": 40312, "BSTAR": 0.00016889, "MEAN_MOTION_DOT": 7.69e-06, "MEAN_MOTION_DDOT": 0}, "tle": {"line1": "1 43461U 18043A   25337.46748955  .00000769  00000+0  16889-3 0  9998", "line2": "2 43461  98.4313 300.2737 0001564  10.1795 349.9435 14.60392530403129"}}, "geometry": {"type": "Point", "coordinates": [-59.45150905457013, 0.026869336189852634]}}, {"type": "Feature", "properties": {"norad_id": 43484, "name": "GAOFEN-6", "group": "resource", "lat": -13.758938103775533, "lon": -139.6142088813234, "alt_km": 647.0809839433232, "timestamp": "2025-12-03T17:47:50.369805+00:00", "meta": {"OBJECT_NAME": "GAOFEN-6", "OBJECT_ID": "2018-048A", "EPOCH": "2025-12-03T12:02:40.452576", "MEAN_MOTION": 14.76536863, "ECCENTRICITY": 0.0013319, "INCLINATION": 97.8044, "RA_OF_ASC_NODE": 42.0787, "ARG_OF_PERICENTER": 90.969, "MEAN_ANOMALY": 269.3046, "EPHEMERIS_TYPE": 0, "CLASSIFICATION_TYPE": "U", "NORAD_CAT_ID": 43484, "ELEMENT_SET_NO": 999, "REV_AT_EPOCH": 40451, "BSTAR": 8.8189e-05, "MEAN_MOTION_DOT": 5.66e-06, "MEAN_MOTION_DDOT": 0}, "tle": {"line1": "1 43484U 18048A   25337.50185709  .00000566  00000+0  88189-4 0  9993", "line2": "2 43484  97.8044  42.0787 0013319  90.9690 269.3046 14.76536863404518"}}, "geometry": {"type": "Point", "coordinates": [-139.6142088813234, -13.758938103775533]}}, {"type": "Feature", "properties": {"norad_id": 43585, "name": "GAOFEN-11 01", "group": "resource", "lat": 3.4406519249961356, "lon": -138.81324488468522, "alt_km": 426.2112698834135, "timestamp": "2025-12-03T17:47:50.369822+00:00", "meta": {"OBJECT_NAME": "GAOFEN-11 01", "OBJECT_ID": "2018-063A", "EPOCH": "2025-12-03T12:23:10.454208", "MEAN_MOTION": 15.48818106, "ECCENTRICITY": 0.0004978, "INCLINATION": 97.1581, "RA_OF_ASC_NODE": 40.5303, "ARG_OF_PERICENTER": 353.3447, "MEAN_ANOMALY": 6.7738, "EPHEMERIS_TYPE": 0, "CLASSIFICATION_TYPE": "U", "NORAD_CAT_ID": 43585, "ELEMENT_SET_NO": 999, "REV_AT_EPOCH": 40999, "BSTAR": 0.0003517, "MEAN_MOTION_DOT": 0.00018847, "MEAN_MOTION_DDOT": 0}, "tle": {"line1": "1 43585U 18063A   25337.51609322  .00018847  00000+0  35170-3 0  9997", "line2": "2 43585  97.1581  40.5303 0004978 353.3447   6.7738 15.48818106409994"}}, "geometry": {"type": "Point", "coordinates": [-138.81324488468522, 3.4406519249961356]}}, {"type": "Feature", "properties": {"norad_id": 43613, "name": "ICESAT-2", "group": "resource", "lat": -47.487619075905144, "lon": 56.1173266391607, "alt_km": 488.1309545912882, "timestamp": "2025-12-03T17:47:50.369832+00:00", "meta": {"OBJECT_NAME": "ICESAT-2", "OBJECT_ID": "2018-070A", "EPOCH": "2025-12-03T12:05:25.563840", "MEAN_MOTION": 15.28224846, "ECCENTRICITY": 3.27e-05, "INCLINATION": 92.0056, "RA_OF_ASC_NODE": 238.2439, "ARG_OF_PERICENTER": 122.3, "MEAN_ANOMALY": 237.8281, "EPHEMERIS_TYPE": 0, "CLASSIFICATION_TYPE": "U", "NORAD_CAT_ID": 43613, "ELEMENT_SET_NO": 999, "REV_AT_EPOCH": 40257, "BSTAR": 0.00066112, "MEAN_MOTION_DOT": 0.00018192, "MEAN_MOTION_DDOT": 0}, "tle": {"line1": "1 43613U 18070A   25337.50376810  .00018192  00000+0  66112-3 0  9992", "line2": "2 43613  92.0056 238.2439 0000327 122.3000 237.8281 15.28224846402573"}}, "geometry": {"type": "Point", "coordinates": [56.1173266391607, -47.487619075905144]}}, {"type": "Feature", "properties": {"norad_id": 43719, "name": "HYSIS", "group": "resource", "lat": 17.950714705132217, "lon": -136.62179704937995, "alt_km": 634.2728427333805, "timestamp": "2025-12-03T17:47:50.369844+00:00", "meta": {"OBJECT_NAME": "HYSIS", "OBJECT_ID": "2018-096A", "EPOCH": "2025-12-03T10:34:18.118272", "MEAN_MOTION": 14.78598612, "ECCENTRICITY": 0.0001613, "INCLINATION": 98.0112, "RA_OF_ASC_NODE": 40.4635, "ARG_OF_PERICENTER": 67.1703, "MEAN_ANOMALY": 292.9678, "EPHEMERIS_TYPE": 0, "CLASSIFICATION_TYPE": "U", "NORAD_CAT_ID": 43719, "ELEMENT_SET_NO": 999, "REV_AT_EPOCH": 37849, "BSTAR": 2.719e-05, "MEAN_MOTION_DOT": 1.47e-06, "MEAN_MOTION_DDOT": 0}, "tle": {"line1": "1 43719U 18096A   25337.44048748  .00000147  00000+0  27190-4 0  9991", "line2": "2 43719  98.0112  40.4635 0001613  67.1703 292.9678 14.78598612378499"}}, "geometry": {"type": "Point", "coordinates": [-136.62179704937995, 17.950714705132217]}}, {"type": "Feature", "properties": {"norad_id": 43783, "name": "KAZSTSAT", "group": "resource", "lat": 82.42654690008189, "lon": -66.71514618066365, "alt_km": 561.1993898905894, "timestamp": "2025-12-03T17:47:50.369855+00:00", "meta": {"OBJECT_NAME": "KAZSTSAT", "OBJECT_ID": "2018-099AB", "EPOCH": "2025-12-03T09:23:41.474400", "MEAN_MOTION": 14.99300717, "ECCENTRICITY": 0.0006531, "INCLINATION": 97.4553, "RA_OF_ASC_NODE": 12.9784, "ARG_OF_PERICENTER": 4.7041, "MEAN_ANOMALY": 355.4243, "EPHEMERIS_TYPE": 0, "CLASSIFICATION_TYPE": "U", "NORAD_CAT_ID": 43783, "ELEMENT_SET_NO": 999, "REV_AT_EPOCH": 38196, "BSTAR": 0.00023582, "MEAN_MOTION_DOT": 2.825e-05, "MEAN_MOTION_DDOT": 0}, "tle": {"line1": "1 43783U 18099AB  25337.39145225  .00002825  00000+0  23582-3 0  9992", "line2": "2 43783  97.4553  12.9784 0006531   4.7041 355.4243 14.99300717381966"}}, "geometry": {"type": "Point", "coordinates": [-66.71514618066365, 82.42654690008189]}}, {"type": "Feature", "properties": {"norad_id": 43831, "name": "SAUDISAT 5A", "group": "resource", "lat": 12.296363874311812, "lon": 36.49805158747346, "alt_km": 490.88444254262504, "timestamp": "2025-12-03T17:47:50.369866+00:00", "meta": {"OBJECT_NAME": "SAUDISAT 5A", "OBJECT_ID": "2018-102A", "EPOCH": "2025-12-03T13:01:12.813888", "MEAN_MOTION": 15.25472342, "ECCENTRICITY": 0.0011795, "INCLINATION": 97.3374, "RA_OF_ASC_NODE": 37.9123, "ARG_OF_PERICENTER": 104.4642, "MEAN_ANOMALY": 255.7905, "EPHEMERIS_TYPE": 0, "CLASSIFICATION_TYPE": "U", "NORAD_CAT_ID": 43831, "ELEMENT_SET_NO": 999, "REV_AT_EPOCH": 38582, "BSTAR": 0.00035748, "MEAN_MOTION_DOT": 8.996e-05, "MEAN_MOTION_DDOT": 0}, "tle": {"line1": "1 43831U 18102A   25337.54250942  .00008996  00000+0  35748-3 0  9993", "line2": "2 43831  97.3374  37.9123 0011795 104.4642 255.7905 15.25472342385827"}}, "geometry": {"type": "Point", "coordinates": [36.49805158747346, 12.296363874311812]}}, {"type": "Feature", "properties": {"norad_id": 43833, "name": "SAUDISAT 5B", "group": "resource", "lat": 52.60415864475162, "lon": 31.11284868533593, "alt_km": 478.2536688641012, "timestamp": "2025-12-03T17:47:50.369877+00:00", "meta": {"OBJECT_NAME": "SAUDISAT 5B", "OBJECT_ID": "2018-102C", "EPOCH": "2025-12-03T12:50:35.427264", "MEAN_MOTION": 15.25830217, "ECCENTRICITY": 0.0012479, "INCLINATION": 97.3468, "RA_OF_ASC_NODE": 40.627, "ARG_OF_PERICENTER": 107.0302, "MEAN_ANOMALY": 253.2305, "EPHEMERIS_TYPE": 0, "CLASSIFICATION_TYPE": "U", "NORAD_CAT_ID": 43833, "ELEMENT_SET_NO": 999, "REV_AT_EPOCH": 38593, "BSTAR": 0.00036555, "MEAN_MOTION_DOT": 9.303e-05, "MEAN_MOTION_DDOT": 0}, "tle": {"line1": "1 43833U 18102C   25337.53513226  .00009303  00000+0  36555-3 0  9991", "line2": "2 43833  97.3468  40.6270 0012479 107.0302 253.2305 15.25830217385937"}}, "geometry": {"type": "Point", "coordinates": [31.11284868533593, 52.60415864475162]}}]}